[
    {
        "Altitude(m)": 703263.0414596582,
        "Argument of Periapsis(deg)": 0.0,
        "Eccentricity": 0.0,
        "Inclination(deg)": 45.0,
        "Latitude(deg)": 22.545710516064197,
        "Longitude(deg)": -24.35760008710115,
        "Mean Anomaly(deg)": -212.7273,
        "RAAN(deg)": 280.0,
        "Satellite Name": "Constellation 1 1241",
        "Satellite Number": 1241,
        "Semi-Major Axis(m)": 7083131.272910544,
        "Time(s)": 0
    },
    {
        "Altitude(m)": 703258.9336652076,
        "Argument of Periapsis(deg)": 5.994800624540561e-05,
        "Eccentricity": 0.0,
        "Inclination(deg)": 45.0,
        "Latitude(deg)": 22.506383663473397,
        "Longitude(deg)": -24.3115090778123,
        "Mean Anomaly(deg)": -212.6665988597501,
        "RAAN(deg)": 279.9999434108344,
        "Satellite Name": "Constellation 1 1241",
        "Satellite Number": 1241,
        "Semi-Major Axis(m)": 7083131.272910544,
        "Time(s)": 1
    },
    {
        "Altitude(m)": 703254.8376972371,
        "Argument of Periapsis(deg)": 0.00011989601249081122,
        "Eccentricity": 0.0,
        "Inclination(deg)": 45.0,
        "Latitude(deg)": 22.467041001813122,
        "Longitude(deg)": -24.265446453683108,
        "Mean Anomaly(deg)": -212.60589771950023,
        "RAAN(deg)": 279.99988682166884,
        "Satellite Name": "Constellation 1 1241",
        "Satellite Number": 1241,
        "Semi-Major Axis(m)": 7083131.272910544,
        "Time(s)": 2
    },
    {
        "Altitude(m)": 703250.7535902911,
        "Argument of Periapsis(deg)": 0.00017984401873621686,
        "Eccentricity": 0.0,
        "Inclination(deg)": 45.0,
        "Latitude(deg)": 22.427682570319135,
        "Longitude(deg)": -24.21941215498941,
        "Mean Anomaly(deg)": -212.54519657925033,
        "RAAN(deg)": 279.99983023250326,
        "Satellite Name": "Constellation 1 1241",
        "Satellite Number": 1241,
        "Semi-Major Axis(m)": 7083131.272910544,
        "Time(s)": 3
    },
    {
        "Altitude(m)": 703246.6813788787,
        "Argument of Periapsis(deg)": 0.00023979202498162244,
        "Eccentricity": 0.0,
        "Inclination(deg)": 45.0,
        "Latitude(deg)": 22.388308408171234,
        "Longitude(deg)": -24.173406122027036,
        "Mean Anomaly(deg)": -212.4844954390004,
        "RAAN(deg)": 279.99977364333773,
        "Satellite Name": "Constellation 1 1241",
        "Satellite Number": 1241,
        "Semi-Major Axis(m)": 7083131.272910544,
        "Time(s)": 4
    },
    {
        "Altitude(m)": 703242.6210974504,
        "Argument of Periapsis(deg)": 0.00029974003122702807,
        "Eccentricity": 0.0,
        "Inclination(deg)": 45.0,
        "Latitude(deg)": 22.34891855449367,
        "Longitude(deg)": -24.12742829511305,
        "Mean Anomaly(deg)": -212.42379429875055,
        "RAAN(deg)": 279.99971705417215,
        "Satellite Name": "Constellation 1 1241",
        "Satellite Number": 1241,
        "Semi-Major Axis(m)": 7083131.272910544,
        "Time(s)": 5
    },
    {
        "Altitude(m)": 703238.572780437,
        "Argument of Periapsis(deg)": 0.00035968803747243373,
        "Eccentricity": 0.0,
        "Inclination(deg)": 45.0,
        "Latitude(deg)": 22.3095130483549,
        "Longitude(deg)": -24.081478614585027,
        "Mean Anomaly(deg)": -212.3630931585006,
        "RAAN(deg)": 279.99966046500657,
        "Satellite Name": "Constellation 1 1241",
        "Satellite Number": 1241,
        "Semi-Major Axis(m)": 7083131.272910544,
        "Time(s)": 6
    },
    {
        "Altitude(m)": 703234.5364622026,
        "Argument of Periapsis(deg)": 0.00041963604371783933,
        "Eccentricity": 0.0,
        "Inclination(deg)": 45.0,
        "Latitude(deg)": 22.27009192876795,
        "Longitude(deg)": -24.035557188898917,
        "Mean Anomaly(deg)": -212.30239201825077,
        "RAAN(deg)": 279.999603875841,
        "Satellite Name": "Constellation 1 1241",
        "Satellite Number": 1241,
        "Semi-Major Axis(m)": 7083131.272910544,
        "Time(s)": 7
    },
    {
        "Altitude(m)": 703230.5121770806,
        "Argument of Periapsis(deg)": 0.0004795840499632449,
        "Eccentricity": 0.0,
        "Inclination(deg)": 45.0,
        "Latitude(deg)": 22.230655234690893,
        "Longitude(deg)": -23.98966362224066,
        "Mean Anomaly(deg)": -212.24169087800084,
        "RAAN(deg)": 279.9995472866754,
        "Satellite Name": "Constellation 1 1241",
        "Satellite Number": 1241,
        "Semi-Major Axis(m)": 7083131.272910544,
        "Time(s)": 8
    },
    {
        "Altitude(m)": 703226.4999593634,
        "Argument of Periapsis(deg)": 0.0005395320562086505,
        "Eccentricity": 0.0,
        "Inclination(deg)": 45.0,
        "Latitude(deg)": 22.191203005025987,
        "Longitude(deg)": -23.943798023108545,
        "Mean Anomaly(deg)": -212.1809897377509,
        "RAAN(deg)": 279.9994906975099,
        "Satellite Name": "Constellation 1 1241",
        "Satellite Number": 1241,
        "Semi-Major Axis(m)": 7083131.272910544,
        "Time(s)": 9
    },
    {
        "Altitude(m)": 703222.4998432919,
        "Argument of Periapsis(deg)": 0.0005994800624540561,
        "Eccentricity": 0.0,
        "Inclination(deg)": 45.0,
        "Latitude(deg)": 22.15173527862065,
        "Longitude(deg)": -23.897960331925557,
        "Mean Anomaly(deg)": -212.12028859750106,
        "RAAN(deg)": 279.99943410834425,
        "Satellite Name": "Constellation 1 1241",
        "Satellite Number": 1241,
        "Semi-Major Axis(m)": 7083131.272910544,
        "Time(s)": 10
    },
    {
        "Altitude(m)": 703218.5118630654,
        "Argument of Periapsis(deg)": 0.0006594280686994618,
        "Eccentricity": 0.0,
        "Inclination(deg)": 45.0,
        "Latitude(deg)": 22.112252094267,
        "Longitude(deg)": -23.852150489136157,
        "Mean Anomaly(deg)": -212.05958745725113,
        "RAAN(deg)": 279.9993775191787,
        "Satellite Name": "Constellation 1 1241",
        "Satellite Number": 1241,
        "Semi-Major Axis(m)": 7083131.272910544,
        "Time(s)": 11
    },
    {
        "Altitude(m)": 703214.5360528467,
        "Argument of Periapsis(deg)": 0.0007193760749448675,
        "Eccentricity": 0.0,
        "Inclination(deg)": 45.0,
        "Latitude(deg)": 22.072753490702564,
        "Longitude(deg)": -23.806368435206906,
        "Mean Anomaly(deg)": -211.99888631700128,
        "RAAN(deg)": 279.99932093001314,
        "Satellite Name": "Constellation 1 1241",
        "Satellite Number": 1241,
        "Semi-Major Axis(m)": 7083131.272910544,
        "Time(s)": 12
    },
    {
        "Altitude(m)": 703210.5724467479,
        "Argument of Periapsis(deg)": 0.000779324081190273,
        "Eccentricity": 0.0,
        "Inclination(deg)": 45.0,
        "Latitude(deg)": 22.033239506609835,
        "Longitude(deg)": -23.760614110626197,
        "Mean Anomaly(deg)": -211.9381851767513,
        "RAAN(deg)": 279.9992643408476,
        "Satellite Name": "Constellation 1 1241",
        "Satellite Number": 1241,
        "Semi-Major Axis(m)": 7083131.272910544,
        "Time(s)": 13
    },
    {
        "Altitude(m)": 703206.6210788359,
        "Argument of Periapsis(deg)": 0.0008392720874356787,
        "Eccentricity": 0.0,
        "Inclination(deg)": 45.0,
        "Latitude(deg)": 21.993710180616773,
        "Longitude(deg)": -23.71488745590457,
        "Mean Anomaly(deg)": -211.87748403650141,
        "RAAN(deg)": 279.99920775168204,
        "Satellite Name": "Constellation 1 1241",
        "Satellite Number": 1241,
        "Semi-Major Axis(m)": 7083131.272910544,
        "Time(s)": 14
    },
    {
        "Altitude(m)": 703202.6819831346,
        "Argument of Periapsis(deg)": 0.0008992200936810842,
        "Eccentricity": 0.0,
        "Inclination(deg)": 45.0,
        "Latitude(deg)": 21.95416555129646,
        "Longitude(deg)": -23.669188579671964,
        "Mean Anomaly(deg)": -211.81678289625154,
        "RAAN(deg)": 279.9991511625164,
        "Satellite Name": "Constellation 1 1241",
        "Satellite Number": 1241,
        "Semi-Major Axis(m)": 7083131.272910544,
        "Time(s)": 15
    },
    {
        "Altitude(m)": 703198.7551936246,
        "Argument of Periapsis(deg)": 0.0009591680999264898,
        "Eccentricity": 0.0,
        "Inclination(deg)": 45.0,
        "Latitude(deg)": 21.91460565716811,
        "Longitude(deg)": -23.623517086289507,
        "Mean Anomaly(deg)": -211.7560817560016,
        "RAAN(deg)": 279.9990945733509,
        "Satellite Name": "Constellation 1 1241",
        "Satellite Number": 1241,
        "Semi-Major Axis(m)": 7083131.272910544,
        "Time(s)": 16
    },
    {
        "Altitude(m)": 703194.8407442479,
        "Argument of Periapsis(deg)": 0.0010191161061718953,
        "Eccentricity": 0.0,
        "Inclination(deg)": 45.0,
        "Latitude(deg)": 21.875030536696155,
        "Longitude(deg)": -23.577873084432415,
        "Mean Anomaly(deg)": -211.69538061575173,
        "RAAN(deg)": 279.9990379841853,
        "Satellite Name": "Constellation 1 1241",
        "Satellite Number": 1241,
        "Semi-Major Axis(m)": 7083131.272910544,
        "Time(s)": 17
    },
    {
        "Altitude(m)": 703190.9386688812,
        "Argument of Periapsis(deg)": 0.001079064112417301,
        "Eccentricity": 0.0,
        "Inclination(deg)": 45.0,
        "Latitude(deg)": 21.835440228290818,
        "Longitude(deg)": -23.532256514701185,
        "Mean Anomaly(deg)": -211.6346794755018,
        "RAAN(deg)": 279.99898139501977,
        "Satellite Name": "Constellation 1 1241",
        "Satellite Number": 1241,
        "Semi-Major Axis(m)": 7083131.272910544,
        "Time(s)": 18
    }
]